STARLINK-37113          
1 68318U 26057AA  26087.83335648 -.01151235  44795-3 -17595-2 0  9990
2 68318  97.2782 210.9756 0000964  70.5301 211.7389 16.04468956  2336
